NORAD_CAT_ID,OBJECT_NAME,OBJECT_TYPE,EPOCH,MEAN_MOTION,ECCENTRICITY,INCLINATION,RA_OF_ASC_NODE,ARG_OF_PERICENTER,MEAN_ANOMALY,BSTAR,MEAN_MOTION_DOT,MEAN_MOTION_DDOT,TLE_LINE0,TLE_LINE1,TLE_LINE2,SEMIMAJOR_AXIS,PERIOD,APOGEE,PERIGEE,DECAYED
53892.0,STARLINK-5046,PAYLOAD,2022-11-12 14:00:01,15.52294925,0.0001758,53.2174,13.0099,31.0677,318.4477,-0.0095006,-0.00548959,0.0,0 STARLINK-5046,1 53892U 22119G   22316.58334491 -.00548959  00000-0 -95006-2 0  9997,2 53892  53.2174  13.0099 0001758  31.0677 318.4477 15.52294925  1300,6788.1640000000025,92.766,411.223,408.836,0.0
53892.0,STARLINK-5046,PAYLOAD,2022-11-12 22:00:00,15.51354077,0.0001776,53.2174,11.4097,17.3335,36.0465,-0.0064935,-0.00371027,0.0,0 STARLINK-5046,1 53892U 22119G   22316.91667824 -.00371027  00000-0 -64935-2 0  9990,2 53892  53.2174  11.4097 0001776  17.3335  36.0465 15.51354077  8130,6790.909000000002,92.822,413.98,411.568,0.0
53892.0,STARLINK-5046,PAYLOAD,2022-11-13 04:00:01,15.49685294,0.0001250999999999,53.2171,10.2106,46.504,324.9541,0.014415,0.00881525,0.0,0 STARLINK-5046,1 53892U 22119G   22317.16668981  .00881525  00000-0  14415-1 0  9997,2 53892  53.2171  10.2106 0001251  46.5040 324.9541 15.49685294  8162,6795.783,92.922,418.49800000000016,416.798,0.0
53892.0,STARLINK-5046,PAYLOAD,2022-11-13 14:00:01,15.49663966,0.0001739,53.2158,8.2195,35.5529,142.4919,0.0068845,0.00408172,0.0,0 STARLINK-5046,1 53892U 22119G   22317.58334491  .00408172  00000-0  68845-2 0  9999,2 53892  53.2158   8.2195 0001739  35.5529 142.4919 15.49663966  8235,6795.845,92.923,418.892,416.529,0.0
53892.0,STARLINK-5046,PAYLOAD,2022-11-13 14:46:55,15.51734727,0.0001428,53.2099,8.0672,77.2571,282.8599,-0.0094815,-0.0053762,0.0,0 STARLINK-5046,1 53892U 22119G   22317.61591779 -.00537620  00000-0 -94815-2 0  9996,2 53892  53.2099   8.0672 0001428  77.2571 282.8599 15.51734727  8232,6789.7980000000025,92.799,412.633,410.693,0.0
53892.0,STARLINK-5046,PAYLOAD,2022-11-14 09:20:12,15.51277017,0.0001969,53.2111,4.3602,241.4415,118.6397,-0.0043729,-0.00253043,0.0,0 STARLINK-5046,1 53892U 22119G   22318.38903928 -.00253043  00000-0 -43729-2 0  9996,2 53892  53.2111   4.3602 0001969 241.4415 118.6397 15.51277017  8350,6791.134,92.827,414.336,411.661,0.0
53892.0,STARLINK-5046,PAYLOAD,2022-11-14 10:53:15,15.50910371,5.65e-05,53.2147,4.0558,27.1158,332.9882,-0.0055943999999999,-0.00316777,0.0,0 STARLINK-5046,1 53892U 22119G   22318.45365225 -.00316777  00000-0 -55944-2 0  9992,2 53892  53.2147   4.0558 0000565  27.1158 332.9882 15.50910371  8794,6792.204000000002,92.849,414.453,413.685,0.0
53892.0,STARLINK-5046,PAYLOAD,2022-11-14 15:32:04,15.50768778,0.0002095,53.2104,3.1325,27.7753,332.3369,-0.0047283,-0.00268149,0.0,0 STARLINK-5046,1 53892U 22119G   22318.64727538 -.00268149  00000-0 -47283-2 0  9998,2 53892  53.2104   3.1325 0002095  27.7753 332.3369 15.50768778  8398,6792.6169999999975,92.857,415.905,413.059,0.0
53892.0,STARLINK-5046,PAYLOAD,2022-11-15 08:34:50,15.482632699999998,0.0008256,53.2095,359.7437,77.4034,282.7898,-0.0097706,-0.00493555,0.0,0 STARLINK-5046,1 53892U 22119G   22319.35753148 -.00493555  00000-0 -97706-2 0  9999,2 53892  53.2095 359.7437 0008256  77.4034 282.7898 15.48263270  8502,6799.943,93.007,427.422,416.194,0.0
53892.0,STARLINK-5046,PAYLOAD,2022-11-15 14:45:40,15.49777561,0.0001771999999999,53.2104,358.5129,32.2445,327.8673,-0.002012,-0.00112595,0.0,0 STARLINK-5046,1 53892U 22119G   22319.61505627 -.00112595  00000-0 -20120-2 0  9993,2 53892  53.2104 358.5129 0001772  32.2445 327.8673 15.49777561  8549,6795.513000000001,92.917,418.582,416.174,0.0
53892.0,STARLINK-5046,PAYLOAD,2022-11-15 22:29:54,15.49830619,0.0002056,53.2126,356.974,245.731,114.3486,0.00026853,0.00014789,0.0,0 STARLINK-5046,1 53892U 22119G   22319.93743827  .00014789  00000-0  26853-3 0  9998,2 53892  53.2126 356.9740 0002056 245.7310 114.3486 15.49830619  8592,6795.358,92.913,418.62,415.826,0.0
53892.0,STARLINK-5046,PAYLOAD,2022-11-16 09:20:49,15.48634239,0.0001153,53.2146,354.8189,79.3807,280.7332,-0.0047615,-0.00250909,0.0,0 STARLINK-5046,1 53892U 22119G   22320.38945941 -.00250909  00000-0 -47615-2 0  9996,2 53892  53.2146 354.8189 0001153  79.3807 280.7332 15.48634239  8662,6798.857,92.985,421.506,419.939,0.0
53892.0,STARLINK-5046,PAYLOAD,2022-11-16 14:00:47,15.48259997,0.0003302,53.2131,353.8901,162.6489,197.4634,-0.0037015,-0.00194065,0.0,0 STARLINK-5046,1 53892U 22119G   22320.58388738 -.00194065  00000-0 -37015-2 0  9996,2 53892  53.2131 353.8901 0003302 162.6489 197.4634 15.48259997  9122,6799.953,93.008,424.06300000000016,419.573,0.0
53892.0,STARLINK-5046,PAYLOAD,2022-11-17 04:00:00,15.44902715,0.000154,53.2175,351.1284,37.7995,326.5173,-0.026229,-0.01144822,0.0,0 STARLINK-5046,1 53892U 22119G   22321.16667824 -.01144822  00000-0 -26229-1 0  9998,2 53892  53.2175 351.1284 0001540  37.7995 326.5173 15.44902715  8784,6809.801,93.21,432.715,430.617,0.0
53892.0,STARLINK-5046,PAYLOAD,2022-11-17 12:00:00,15.42537031,0.0002006,53.2167,349.5496,52.0283,7.8321,0.014565,0.00693085,0.0,0 STARLINK-5046,1 53892U 22119G   22321.50001157  .00693085  00000-0  14565-1 0  9994,2 53892  53.2167 349.5496 0002006  52.0283   7.8321 15.42537031  8843,6816.762,93.353,439.994,437.259,0.0
53892.0,STARLINK-5046,PAYLOAD,2022-11-17 14:00:01,15.43148683,0.0001993,53.2169,349.1547,29.0104,133.5756,-0.0024593,-0.0010949,0.0,0 STARLINK-5046,1 53892U 22119G   22321.58334491 -.00109490  00000-0 -24593-2 0  9999,2 53892  53.2169 349.1547 0001993  29.0104 133.5756 15.43148683  1303,6814.96,93.316,438.1830000000001,435.467,0.0
53892.0,STARLINK-5046,PAYLOAD,2022-11-17 20:00:01,15.43272648,0.0001836,53.2176,347.97,32.9165,79.2789,-0.027618,-0.01140632,0.0,0 STARLINK-5046,1 53892U 22119G   22321.83334491 -.01140632  00000-0 -27618-1 0  9991,2 53892  53.2176 347.9700 0001836  32.9165  79.2789 15.43272648  8896,6814.595,93.308,437.711,435.209,0.0
53892.0,STARLINK-5046,PAYLOAD,2022-11-17 22:00:00,15.4305513,0.0001296,53.2176,347.5758,66.5845,148.8257,-0.027233,-0.01118322,0.0,0 STARLINK-5046,1 53892U 22119G   22321.91667824 -.01118322  00000-0 -27233-1 0  9993,2 53892  53.2176 347.5758 0001296  66.5845 148.8257 15.43055130  1300,6815.236,93.321,437.984,436.217,0.0
53892.0,STARLINK-5046,PAYLOAD,2022-11-18 14:00:01,15.39885165,0.0002941,53.217,344.4256,278.256,41.4675,0.032247,0.01436276,0.0,0 STARLINK-5046,1 53892U 22119G   22322.58334491  .01436276  00000-0  32247-1 0  9998,2 53892  53.2170 344.4256 0002941 278.2560  41.4675 15.39885165  9008,6824.5859999999975,93.513,448.458,444.443,0.0
53892.0,STARLINK-5046,PAYLOAD,2022-11-18 20:00:01,15.40944677,0.0004281,53.2177,343.2467,277.6993,349.0166,-0.024187,-0.00927906,0.0,0 STARLINK-5046,1 53892U 22119G   22322.83334491 -.00927906  00000-0 -24187-1 0  9996,2 53892  53.2177 343.2467 0004281 277.6993 349.0166 15.40944677  9040,6821.456999999999,93.449,446.242,440.402,0.0
53892.0,STARLINK-5046,PAYLOAD,2022-11-18 22:00:00,15.39747524,0.0002105,53.2174,342.8527,19.7316,350.0169,0.015549,0.00673241,0.0,0 STARLINK-5046,1 53892U 22119G   22322.91667824  .00673241  00000-0  15549-1 0  9994,2 53892  53.2174 342.8527 0002105  19.7316 350.0169 15.39747524  1302,6824.9919999999975,93.522,448.294,445.421,0.0
53892.0,STARLINK-5046,PAYLOAD,2022-11-19 06:00:00,15.40985411,0.0001769,53.2153,341.2846,54.0149,7.0462,0.0022256,0.00093872,0.0,0 STARLINK-5046,1 53892U 22119G   22323.25001157  .00093872  00000-0  22256-2 0  9993,2 53892  53.2153 341.2846 0001769  54.0149   7.0462 15.40985411  9110,6821.337,93.447,444.408,441.995,0.0
53892.0,STARLINK-5046,PAYLOAD,2022-11-19 14:00:01,15.41030057,0.0002116,53.2156,339.7145,44.675,66.6349,0.0023189,0.00098024,0.0,0 STARLINK-5046,1 53892U 22119G   22323.58334491  .00098024  00000-0  23189-2 0  9999,2 53892  53.2156 339.7145 0002116  44.6750  66.6349 15.41030057  1303,6821.205,93.444,444.513,441.627,0.0
53892.0,STARLINK-5046,PAYLOAD,2022-11-19 20:00:01,15.41404961,0.0001709,53.217,338.5344,37.8973,21.1013,-0.03206,-0.01233762,0.0,0 STARLINK-5046,1 53892U 22119G   22323.83334491 -.01233762  00000-0 -32060-1 0  9997,2 53892  53.2170 338.5344 0001709  37.8973  21.1013 15.41404961  9205,6820.099,93.421,443.129,440.798,0.0
53892.0,STARLINK-5046,PAYLOAD,2022-11-19 22:00:00,15.41142299,0.0001828,53.2169,338.1411,37.9532,123.6955,-0.029294,-0.01127219,0.0,0 STARLINK-5046,1 53892U 22119G   22323.91667824 -.01127219  00000-0 -29294-1 0  9999,2 53892  53.2169 338.1411 0001828  37.9532 123.6955 15.41142299  1307,6820.874,93.437,443.986,441.492,0.0
53892.0,STARLINK-5046,PAYLOAD,2022-11-20 06:00:00,15.40319413,0.0001595999999999,53.2171,336.5707,47.5945,163.9739,-0.023289,-0.00878472,0.0,0 STARLINK-5046,1 53892U 22119G   22324.25001157 -.00878472  00000-0 -23289-1 0  9999,2 53892  53.2171 336.5707 0001596  47.5945 163.9739 15.40319413  9260,6823.303000000001,93.487,446.257,444.079,0.0
53892.0,STARLINK-5046,PAYLOAD,2022-11-20 14:00:01,15.39513719,0.0001651,53.2163,335.0019999999999,43.3279,217.3721,-0.017786,-0.00659607,0.0,0 STARLINK-5046,1 53892U 22119G   22324.58334491 -.00659607  00000-0 -17786-1 0  9997,2 53892  53.2163 335.0020 0001651  43.3279 217.3721 15.39513719  1304,6825.683000000001,93.536,448.675,446.421,0.0
53892.0,STARLINK-5046,PAYLOAD,2022-11-20 22:00:00,15.39040759,0.0001488,53.2173,333.4324,44.2341,264.6477,-0.025272,-0.00910894,0.0,0 STARLINK-5046,1 53892U 22119G   22324.91667824 -.00910894  00000-0 -25272-1 0  9990,2 53892  53.2173 333.4324 0001488  44.2341 264.6477 15.39040759  9368,6827.081999999999,93.565,449.962,447.931,0.0
53892.0,STARLINK-5046,PAYLOAD,2022-11-21 14:00:01,15.37801506,0.0001976,53.2162,330.3026,24.7005,18.3435,-0.028952,-0.00994035,0.0,0 STARLINK-5046,1 53892U 22119G   22325.58334491 -.00994035  00000-0 -28952-1 0  9992,2 53892  53.2162 330.3026 0001976  24.7005  18.3435 15.37801506  1300,6830.749,93.64,453.964,451.264,0.0
